{"_default": { "13": {"norad_id": "41847", "name": "CZ-11 R/B", "tle1": "1 41847U 16066G   26163.18452981  .00001632  00000-0  23593-3 0  9996", "tle2": "2 41847  98.3821 238.9779 0342628 144.6097 217.8365 14.44678480504072", "object_type": "ROCKET_BODY", "criticality_score": 9.0, "last_updated": "2026-06-12T14:14:32.686762+00:00", "maneuver_count": 0, "owner": "N/A"}, "14": {"norad_id": "41789", "name": "ALSAT 1N", "tle1": "1 41789U 16059G   26163.28042942  .00000801  00000-0  14305-3 0  9994", "tle2": "2 41789  97.8009 166.8496 0025069 200.6956 159.3238 14.69299325519280", "object_type": "PAYLOAD", "criticality_score": 9.0, "last_updated": "2026-06-12T14:14:32.686762+00:00", "maneuver_count": 0, "owner": "N/A"}, "15": {"norad_id": "41599", "name": "CARTOSAT 2C", "tle1": "1 41599U 16040A   26163.25246745  .00004702  00000-0  22589-3 0  9994", "tle2": "2 41599  97.4488 223.2983 0010143 147.0136 213.1733 15.19278419552964", "object_type": "PAYLOAD", "criticality_score": 9.0, "last_updated": "2026-06-12T14:14:32.686762+00:00", "maneuver_count": 0, "owner": "N/A"}, "47": {"norad_id": "41339", "name": "CHUBUSAT 3", "tle1": "1 41339U 16012C   26162.94628372  .00004654  00000-0  21465-3 0  9998", "tle2": "2 41339  31.0057   5.2376 0009318  11.6643 348.4213 15.18513131567409", "object_type": "PAYLOAD", "criticality_score": 9.0, "last_updated": "2026-06-12T14:14:32.686762+00:00", "maneuver_count": 0, "owner": "N/A"}, "49": {"norad_id": "40967", "name": "FOX-1", "tle1": "1 40967U 15058D   26162.71824684  .00002264  00000-0  20997-3 0  9996", "tle2": "2 40967  64.7758 295.9784 0130128  58.7261 302.6519 14.90943463112758", "object_type": "PAYLOAD", "criticality_score": 9.0, "last_updated": "2026-06-12T14:14:32.686762+00:00", "maneuver_count": 0, "owner": "N/A"}, "50": {"norad_id": "40958", "name": "LQSAT", "tle1": "1 40958U 15057A   26163.25912950  .00000207  00000-0  36412-4 0  9994", "tle2": "2 40958  97.6679 156.8779 0015587 291.2753  68.6793 14.76776684574584", "object_type": "PAYLOAD", "criticality_score": 9.0, "last_updated": "2026-06-12T14:14:32.686762+00:00", "maneuver_count": 0, "owner": "N/A"}, "109": {"norad_id": "41783", "name": "PRATHAM", "tle1": "1 41783U 16059A   26163.26514664  .00000574  00000-0  10968-3 0  9999", "tle2": "2 41783  97.8323 160.3391 0030004 232.7139 127.1330 14.67188902518797", "object_type": "PAYLOAD", "criticality_score": 9.0, "last_updated": "2026-06-12T14:14:32.686762+00:00", "maneuver_count": 0, "owner": "N/A"}, "138": {"norad_id": "41603", "name": "LAPAN A3", "tle1": "1 41603U 16040E   26163.29589958  .00003319  00000-0  10605-3 0  9999", "tle2": "2 41603  97.1483 159.6023 0011430  41.9491 318.2625 15.33074342554060", "object_type": "PAYLOAD", "criticality_score": 9.0, "last_updated": "2026-06-12T14:14:32.686762+00:00", "maneuver_count": 0, "owner": "N/A"}, "139": {"norad_id": "41340", "name": "HORYU 4", "tle1": "1 41340U 16012D   26163.17820750  .00381515  49653-4  10938-2 0  9997", "tle2": "2 41340  30.9835 115.7146 0003837 236.1046 123.9250 15.91940402570010", "object_type": "PAYLOAD", "criticality_score": 9.0, "last_updated": "2026-06-12T14:14:32.686762+00:00", "maneuver_count": 0, "owner": "N/A"}, "140": {"norad_id": "41338", "name": "CHUBUSAT 2", "tle1": "1 41338U 16012B   26163.22240008  .00006055  00000-0  26226-3 0  9992", "tle2": "2 41338  30.9978 353.9682 0008866  26.4295 333.6797 15.20831245567668", "object_type": "PAYLOAD", "criticality_score": 9.0, "last_updated": "2026-06-12T14:14:32.686762+00:00", "maneuver_count": 0, "owner": "N/A"}, "187": {"norad_id": "40959", "name": "LINGQIAO VIDEO A", "tle1": "1 40959U 15057B   26163.28195128  .00000833  00000-0  12372-3 0  9991", "tle2": "2 40959  97.6620 158.3259 0015273 288.0440  71.9107 14.77386833574681", "object_type": "PAYLOAD", "criticality_score": 9.0, "last_updated": "2026-06-12T14:14:32.686762+00:00", "maneuver_count": 0, "owner": "N/A"}, "188": {"norad_id": "40960", "name": "LINGQIAO VIDEO B", "tle1": "1 40960U 15057C   26163.25897712  .00000409  00000-0  64128-4 0  9994", "tle2": "2 40960  97.6585 159.4689 0015441 288.1556  71.7974 14.77492274574720", "object_type": "PAYLOAD", "criticality_score": 9.0, "last_updated": "2026-06-12T14:14:32.686762+00:00", "maneuver_count": 0, "owner": "N/A"}, "190": {"norad_id": "40961", "name": "JILIN 1", "tle1": "1 40961U 15057D   26163.27471835  .00000810  00000-0  11835-3 0  9993", "tle2": "2 40961  97.6507 162.8854 0015346 280.7427  79.2057 14.78152902574880", "object_type": "PAYLOAD", "criticality_score": 9.0, "last_updated": "2026-06-12T14:14:32.686762+00:00", "maneuver_count": 0, "owner": "N/A"}, "369": {"norad_id": "41105", "name": "ELEKTRO-L 2", "tle1": "1 41105U 15074A   26163.04804524 -.00000106  00000-0  00000-0 0  9991", "tle2": "2 41105   6.6796  70.5874 0000807 263.0780 289.5215  1.00271076 38455", "object_type": "PAYLOAD", "criticality_score": 9.0, "last_updated": "2026-06-12T14:14:32.686762+00:00", "maneuver_count": 0, "owner": "N/A"}, "413": {"norad_id": "41556", "name": "ZY 3 2", "tle1": "1 41556U 16033A   26163.25706363  .00005004  00000-0  22555-3 0  9995", "tle2": "2 41556  97.3841 239.1255 0011370 309.5616  50.4615 15.21434881557234", "object_type": "PAYLOAD", "criticality_score": 9.0, "last_updated": "2026-06-12T14:14:32.686762+00:00", "maneuver_count": 0, "owner": "N/A"}, "436": {"norad_id": "41727", "name": "GAOFEN 3", "tle1": "1 41727U 16049A   26163.29689175  .00000136  00000-0  54480-4 0  9991", "tle2": "2 41727  98.4013 171.1566 0001286  99.3897 260.7438 14.42215197517949", "object_type": "PAYLOAD", "criticality_score": 9.0, "last_updated": "2026-06-12T14:14:32.686762+00:00", "maneuver_count": 0, "owner": "N/A"}, "464": {"norad_id": "41179", "name": "ORBCOMM FM 114", "tle1": "1 41179U 15081A   26162.36260887  .00000369  00000-0  11441-3 0  9996", "tle2": "2 41179  47.0059  29.5421 0002127 183.9472 176.1397 14.58851913556902", "object_type": "PAYLOAD", "criticality_score": 9.0, "last_updated": "2026-06-12T14:14:32.686762+00:00", "maneuver_count": 0, "owner": "N/A"}, "465": {"norad_id": "41182", "name": "ORBCOMM FM 110", "tle1": "1 41182U 15081D   26162.35108696  .00000574  00000-0  15771-3 0  9996", "tle2": "2 41182  47.0030  29.0373 0002713  41.4135 318.6956 14.58871310556773", "object_type": "PAYLOAD", "criticality_score": 9.0, "last_updated": "2026-06-12T14:14:32.686762+00:00", "maneuver_count": 0, "owner": "N/A"}, "466": {"norad_id": "41188", "name": "ORBCOMM FM 117", "tle1": "1 41188U 15081K   26163.25320072  .00000390  00000-0  11866-3 0  9993", "tle2": "2 41188  46.9997 204.1607 0003240 204.1019 155.9716 14.58862164559406", "object_type": "PAYLOAD", "criticality_score": 9.0, "last_updated": "2026-06-12T14:14:32.686762+00:00", "maneuver_count": 0, "owner": "N/A"}, "467": {"norad_id": "41189", "name": "ORBCOMM FM 116", "tle1": "1 41189U 15081L   26163.09673298  .00000515  00000-0  14508-3 0  9992", "tle2": "2 41189  47.0032 294.6908 0000825  26.2371 333.8557 14.58875396558193", "object_type": "PAYLOAD", "criticality_score": 9.0, "last_updated": "2026-06-12T14:14:32.686762+00:00", "maneuver_count": 0, "owner": "N/A"}, "468": {"norad_id": "41185", "name": "ORBCOMM FM 113", "tle1": "1 41185U 15081G   26163.05131900  .00000335  00000-0  10705-3 0  9998", "tle2": "2 41185  47.0017 294.9070 0001998 204.7602 155.3188 14.58853293558185", "object_type": "PAYLOAD", "criticality_score": 9.0, "last_updated": "2026-06-12T14:14:32.686762+00:00", "maneuver_count": 0, "owner": "N/A"}, "469": {"norad_id": "41184", "name": "ORBCOMM FM 112", "tle1": "1 41184U 15081F   26163.07485374  .00000491  00000-0  14001-3 0  9992", "tle2": "2 41184  47.0000 294.4222 0003430 195.8649 164.2129 14.58896525558206", "object_type": "PAYLOAD", "criticality_score": 9.0, "last_updated": "2026-06-12T14:14:32.686762+00:00", "maneuver_count": 0, "owner": "N/A"}, "470": {"norad_id": "41187", "name": "ORBCOMM FM 108", "tle1": "1 41187U 15081J   26162.39737644  .00000319  00000-0  10383-3 0  9997", "tle2": "2 41187  47.0051 209.5722 0002650 198.8914 161.1874 14.58864517559231", "object_type": "PAYLOAD", "criticality_score": 9.0, "last_updated": "2026-06-12T14:14:32.686762+00:00", "maneuver_count": 0, "owner": "N/A"}, "476": {"norad_id": "41877", "name": "RESOURCESAT 2A", "tle1": "1 41877U 16074A   26163.28481149 -.00000258  00000-0 -97732-4 0  9999", "tle2": "2 41877  98.7527 236.8291 0003352  92.4209 267.7352 14.21613615493601", "object_type": "PAYLOAD", "criticality_score": 9.0, "last_updated": "2026-06-12T14:14:32.686762+00:00", "maneuver_count": 0, "owner": "N/A"}, "605": {"norad_id": "40920", "name": "COSMOS 2507", "tle1": "1 40920U 15050A   26163.24157414 -.00000032  00000-0 -29993-3 0  9994", "tle2": "2 40920  82.4920  82.7486 0010428   7.2705 352.8524 12.42926518486246", "object_type": "PAYLOAD", "criticality_score": 9.0, "last_updated": "2026-06-12T14:14:32.686762+00:00", "maneuver_count": 0, "owner": "N/A"}, "606": {"norad_id": "40921", "name": "COSMOS 2508", "tle1": "1 40921U 15050B   26163.27704287  .00000030  00000-0  14821-3 0  9994", "tle2": "2 40921  82.4873  81.2336 0015316  36.9953 323.2180 12.42914119486230", "object_type": "PAYLOAD", "criticality_score": 9.0, "last_updated": "2026-06-12T14:14:32.686762+00:00", "maneuver_count": 0, "owner": "N/A"}, "607": {"norad_id": "40922", "name": "COSMOS 2509", "tle1": "1 40922U 15050C   26163.21676266 -.00000020  00000-0 -21629-3 0  9999", "tle2": "2 40922  82.4881  81.3729 0015812  53.0641 307.1884 12.42883399486262", "object_type": "PAYLOAD", "criticality_score": 9.0, "last_updated": "2026-06-12T14:14:32.686762+00:00", "maneuver_count": 0, "owner": "N/A"}, "631": {"norad_id": "41857", "name": "YUNHAI 1", "tle1": "1 41857U 16068A   26163.27771454  .00000491  00000-0  19661-3 0  9991", "tle2": "2 41857  98.5835 174.3303 0006376  55.0786 305.0996 14.32702825501124", "object_type": "PAYLOAD", "criticality_score": 9.0, "last_updated": "2026-06-12T14:14:32.686762+00:00", "maneuver_count": 0, "owner": "N/A"}, "664": {"norad_id": "41173", "name": "DAMPE", "tle1": "1 41173U 15078A   26163.26578753  .00001685  00000-0  59142-4 0  9993", "tle2": "2 41173  97.4560 168.7086 0013810  92.3367 267.9455 15.30774233583793", "object_type": "PAYLOAD", "criticality_score": 9.0, "last_updated": "2026-06-12T14:14:32.686762+00:00", "maneuver_count": 0, "owner": "N/A"}}}